start=new Date('2023-04-03T00:00:00.000Z').valueOf();
sats=[{"ARG_OF_PERICENTER":"246.5855","FILE":"3878419","GP_ID":"229352575","COUNTRY_CODE":"US","PERIAPSIS":"561.860","EPOCH":"2023-04-02T21:55:12.836928","APOAPSIS":"564.096","RA_OF_ASC_NODE":"215.0654","CLASSIFICATION_TYPE":"U","INCLINATION":"97.6528","REF_FRAME":"TEME","CENTER_NAME":"EARTH","MEAN_MOTION_DDOT":"0.0000000000000","MEAN_MOTION_DOT":"-0.00000049","MEAN_MOTION":"15.01270911","MEAN_ELEMENT_THEORY":"SGP4","SITE":"AFWTR","RCS_SIZE":"LARGE","OBJECT_NAME":"STARLINK-4361","SEMIMAJOR_AXIS":"6941.113","PERIOD":"95.919","LAUNCH_DATE":"2022-08-12","MEAN_ANOMALY":"113.5200","TIME_SYSTEM":"UTC","NORAD_CAT_ID":"53493","ELEMENT_SET_NO":"999","BSTAR":"0.00000077360000","DECAY_DATE":null,"OBJECT_TYPE":"PAYLOAD","OBJECT_ID":"2022-099AE","REV_AT_EPOCH":"3518","EPHEMERIS_TYPE":"0","TLE_LINE1":"1 53493U 22099AE  23092.91334302 -.00000049  00000-0  77360-6 0  9990","ECCENTRICITY":"0.00016110","TLE_LINE2":"2 53493  97.6528 215.0654 0001611 246.5855 113.5200 15.01270911 35186"},{"PERIAPSIS":"562.671","APOAPSIS":"563.331","EPOCH":"2023-04-02T22:02:52.370880","RA_OF_ASC_NODE":"215.0719","CLASSIFICATION_TYPE":"U","ARG_OF_PERICENTER":"85.8501","FILE":"3878419","GP_ID":"229353326","COUNTRY_CODE":"US","MEAN_MOTION_DDOT":"0.0000000000000","MEAN_MOTION_DOT":"0.00003610","MEAN_MOTION":"15.01263539","MEAN_ELEMENT_THEORY":"SGP4","SITE":"AFWTR","INCLINATION":"97.6527","REF_FRAME":"TEME","CENTER_NAME":"EARTH","LAUNCH_DATE":"2022-08-12","MEAN_ANOMALY":"274.2777","TIME_SYSTEM":"UTC","NORAD_CAT_ID":"53494","OBJECT_NAME":"STARLINK-4340","RCS_SIZE":"LARGE","SEMIMAJOR_AXIS":"6941.136","PERIOD":"95.919","OBJECT_ID":"2022-099AF","REV_AT_EPOCH":"3518","EPHEMERIS_TYPE":"0","TLE_LINE1":"1 53494U 22099AF  23092.91866170  .00003610  00000-0  28551-3 0  9995","ECCENTRICITY":"0.00004750","TLE_LINE2":"2 53494  97.6527 215.0719 0000475  85.8501 274.2777 15.01263539 35189","ELEMENT_SET_NO":"999","BSTAR":"0.00028551000000","OBJECT_TYPE":"PAYLOAD","DECAY_DATE":null},{"GP_ID":"229353076","COUNTRY_CODE":"US","ARG_OF_PERICENTER":"246.1944","FILE":"3878419","CLASSIFICATION_TYPE":"U","RA_OF_ASC_NODE":"215.0624","PERIAPSIS":"561.714","EPOCH":"2023-04-02T21:52:11.774496","APOAPSIS":"564.285","REF_FRAME":"TEME","CENTER_NAME":"EARTH","INCLINATION":"97.6536","SITE":"AFWTR","MEAN_MOTION":"15.01264007","MEAN_MOTION_DOT":"0.00001407","MEAN_MOTION_DDOT":"0.0000000000000","MEAN_ELEMENT_THEORY":"SGP4","SEMIMAJOR_AXIS":"6941.134","PERIOD":"95.919","OBJECT_NAME":"STARLINK-4429","RCS_SIZE":"LARGE","MEAN_ANOMALY":"113.9086","NORAD_CAT_ID":"53495","TIME_SYSTEM":"UTC","LAUNCH_DATE":"2022-08-12","DECAY_DATE":null,"OBJECT_TYPE":"PAYLOAD","ELEMENT_SET_NO":"999","BSTAR":"0.00011413000000","TLE_LINE1":"1 53495U 22099AG  23092.91124739  .00001407  00000-0  11413-3 0  9995","TLE_LINE2":"2 53495  97.6536 215.0624 0001852 246.1944 113.9086 15.01264007 35181","ECCENTRICITY":"0.00018520","OBJECT_ID":"2022-099AG","REV_AT_EPOCH":"3518","EPHEMERIS_TYPE":"0"},{"REF_FRAME":"TEME","CENTER_NAME":"EARTH","INCLINATION":"97.6535","SITE":"AFWTR","MEAN_MOTION":"15.01263447","MEAN_MOTION_DDOT":"0.0000000000000","MEAN_MOTION_DOT":"0.00004004","MEAN_ELEMENT_THEORY":"SGP4","GP_ID":"229353804","COUNTRY_CODE":"US","ARG_OF_PERICENTER":"253.1387","FILE":"3878419","CLASSIFICATION_TYPE":"U","RA_OF_ASC_NODE":"215.0672","PERIAPSIS":"562.590","APOAPSIS":"563.413","EPOCH":"2023-04-02T21:57:32.386752","DECAY_DATE":null,"OBJECT_TYPE":"PAYLOAD","ELEMENT_SET_NO":"999","BSTAR":"0.00031612000000","TLE_LINE1":"1 53496U 22099AH  23092.91495818  .00004004  00000-0  31612-3 0  9994","TLE_LINE2":"2 53496  97.6535 215.0672 0000593 253.1387 106.9772 15.01263447 35185","ECCENTRICITY":"0.00005930","OBJECT_ID":"2022-099AH","REV_AT_EPOCH":"3518","EPHEMERIS_TYPE":"0","SEMIMAJOR_AXIS":"6941.136","PERIOD":"95.919","OBJECT_NAME":"STARLINK-4465","RCS_SIZE":"LARGE","MEAN_ANOMALY":"106.9772","NORAD_CAT_ID":"53496","TIME_SYSTEM":"UTC","LAUNCH_DATE":"2022-08-12"},{"TIME_SYSTEM":"UTC","NORAD_CAT_ID":"53497","MEAN_ANOMALY":"110.2308","LAUNCH_DATE":"2022-08-12","SEMIMAJOR_AXIS":"6941.147","PERIOD":"95.919","OBJECT_NAME":"STARLINK-4453","RCS_SIZE":"LARGE","ECCENTRICITY":"0.00035010","TLE_LINE2":"2 53497  97.6543 215.0592 0003501 249.8539 110.2308 15.01259961 35188","TLE_LINE1":"1 53497U 22099AJ  23092.90754370  .00000803  00000-0  67129-4 0  9991","REV_AT_EPOCH":"3518","EPHEMERIS_TYPE":"0","OBJECT_ID":"2022-099AJ","OBJECT_TYPE":"PAYLOAD","DECAY_DATE":null,"BSTAR":"0.00006712900000","ELEMENT_SET_NO":"999","RA_OF_ASC_NODE":"215.0592","CLASSIFICATION_TYPE":"U","EPOCH":"2023-04-02T21:46:51.775680","APOAPSIS":"565.442","PERIAPSIS":"560.582","COUNTRY_CODE":"US","GP_ID":"229352075","FILE":"3878419","ARG_OF_PERICENTER":"249.8539","SITE":"AFWTR","MEAN_ELEMENT_THEORY":"SGP4","MEAN_MOTION_DOT":"0.00000803","MEAN_MOTION_DDOT":"0.0000000000000","MEAN_MOTION":"15.01259961","CENTER_NAME":"EARTH","REF_FRAME":"TEME","INCLINATION":"97.6543"},{"MEAN_MOTION_DOT":"-0.00000153","MEAN_MOTION_DDOT":"0.0000000000000","MEAN_MOTION":"15.01263667","MEAN_ELEMENT_THEORY":"SGP4","SITE":"AFWTR","INCLINATION":"97.6525","REF_FRAME":"TEME","CENTER_NAME":"EARTH","PERIAPSIS":"562.390","APOAPSIS":"563.611","EPOCH":"2023-04-02T21:54:52.177824","RA_OF_ASC_NODE":"215.0664","CLASSIFICATION_TYPE":"U","ARG_OF_PERICENTER":"215.2806","FILE":"3878419","GP_ID":"229352826","COUNTRY_CODE":"US","OBJECT_ID":"2022-099AK","REV_AT_EPOCH":"3518","EPHEMERIS_TYPE":"0","TLE_LINE1":"1 53498U 22099AK  23092.91310391 -.00000153  00000-0 -73339-5 0  9995","ECCENTRICITY":"0.00008790","TLE_LINE2":"2 53498  97.6525 215.0664 0000879 215.2806 144.8360 15.01263667 35187","ELEMENT_SET_NO":"999","BSTAR":"-0.00000733390000","OBJECT_TYPE":"PAYLOAD","DECAY_DATE":null,"LAUNCH_DATE":"2022-08-12","MEAN_ANOMALY":"144.8360","TIME_SYSTEM":"UTC","NORAD_CAT_ID":"53498","OBJECT_NAME":"STARLINK-4439","RCS_SIZE":"MEDIUM","SEMIMAJOR_AXIS":"6941.136","PERIOD":"95.919"},{"MEAN_ELEMENT_THEORY":"SGP4","MEAN_MOTION_DDOT":"0.0000000000000","MEAN_MOTION_DOT":"0.00003987","MEAN_MOTION":"15.01257639","SITE":"AFWTR","INCLINATION":"97.6540","CENTER_NAME":"EARTH","REF_FRAME":"TEME","EPOCH":"2023-04-02T21:44:33.141696","APOAPSIS":"565.660","PERIAPSIS":"560.379","RA_OF_ASC_NODE":"215.0545","CLASSIFICATION_TYPE":"U","FILE":"3878419","ARG_OF_PERICENTER":"265.1387","COUNTRY_CODE":"US","GP_ID":"229353576","REV_AT_EPOCH":"3518","EPHEMERIS_TYPE":"0","OBJECT_ID":"2022-099AL","ECCENTRICITY":"0.00038040","TLE_LINE2":"2 53499  97.6540 215.0545 0003804 265.1387  94.9403 15.01257639 35187","TLE_LINE1":"1 53499U 22099AL  23092.90593914  .00003987  00000-0  31480-3 0  9994","BSTAR":"0.00031480000000","ELEMENT_SET_NO":"999","OBJECT_TYPE":"PAYLOAD","DECAY_DATE":null,"LAUNCH_DATE":"2022-08-12","TIME_SYSTEM":"UTC","NORAD_CAT_ID":"53499","MEAN_ANOMALY":"94.9403","OBJECT_NAME":"STARLINK-4454","RCS_SIZE":"LARGE","PERIOD":"95.920","SEMIMAJOR_AXIS":"6941.154"},{"LAUNCH_DATE":"2022-08-12","NORAD_CAT_ID":"53500","TIME_SYSTEM":"UTC","MEAN_ANOMALY":"94.3264","OBJECT_NAME":"STARLINK-4455","RCS_SIZE":"LARGE","PERIOD":"95.919","SEMIMAJOR_AXIS":"6941.146","REV_AT_EPOCH":"3518","EPHEMERIS_TYPE":"0","OBJECT_ID":"2022-099AM","TLE_LINE2":"2 53500  97.6532 215.0592 0003419 265.7569  94.3264 15.01260210 35181","ECCENTRICITY":"0.00034190","TLE_LINE1":"1 53500U 22099AM  23092.90939694  .00002118  00000-0  16942-3 0  9997","BSTAR":"0.00016942000000","ELEMENT_SET_NO":"999","DECAY_DATE":null,"OBJECT_TYPE":"PAYLOAD","APOAPSIS":"565.384","EPOCH":"2023-04-02T21:49:31.895616","PERIAPSIS":"560.638","CLASSIFICATION_TYPE":"U","RA_OF_ASC_NODE":"215.0592","FILE":"3878419","ARG_OF_PERICENTER":"265.7569","COUNTRY_CODE":"US","GP_ID":"229353305","MEAN_ELEMENT_THEORY":"SGP4","MEAN_MOTION":"15.01260210","MEAN_MOTION_DDOT":"0.0000000000000","MEAN_MOTION_DOT":"0.00002118","SITE":"AFWTR","INCLINATION":"97.6532","CENTER_NAME":"EARTH","REF_FRAME":"TEME"},{"TLE_LINE1":"1 53501U 22099AN  23092.90198832  .00002437  00000-0  19424-3 0  9991","ECCENTRICITY":"0.00047640","TLE_LINE2":"2 53501  97.6538 215.0529 0004764 244.5030 115.5702 15.01257793 35185","OBJECT_ID":"2022-099AN","REV_AT_EPOCH":"3518","EPHEMERIS_TYPE":"0","OBJECT_TYPE":"PAYLOAD","DECAY_DATE":null,"ELEMENT_SET_NO":"999","BSTAR":"0.00019424000000","MEAN_ANOMALY":"115.5702","TIME_SYSTEM":"UTC","NORAD_CAT_ID":"53501","LAUNCH_DATE":"2022-08-12","PERIOD":"95.920","SEMIMAJOR_AXIS":"6941.154","RCS_SIZE":"LARGE","OBJECT_NAME":"STARLINK-4434","SITE":"AFWTR","MEAN_MOTION_DDOT":"0.0000000000000","MEAN_MOTION_DOT":"0.00002437","MEAN_MOTION":"15.01257793","MEAN_ELEMENT_THEORY":"SGP4","REF_FRAME":"TEME","CENTER_NAME":"EARTH","INCLINATION":"97.6538","RA_OF_ASC_NODE":"215.0529","CLASSIFICATION_TYPE":"U","PERIAPSIS":"559.712","APOAPSIS":"566.325","EPOCH":"2023-04-02T21:38:51.790848","GP_ID":"229352576","COUNTRY_CODE":"US","ARG_OF_PERICENTER":"244.5030","FILE":"3878419"},{"ECCENTRICITY":"0.00042820","TLE_LINE2":"2 53502  97.6540 215.0562 0004282 252.9788 107.0967 15.01259617 35180","TLE_LINE1":"1 53502U 22099AP  23092.90569293  .00001371  00000-0  11132-3 0  9999","EPHEMERIS_TYPE":"0","REV_AT_EPOCH":"3518","OBJECT_ID":"2022-099AP","OBJECT_TYPE":"PAYLOAD","DECAY_DATE":null,"BSTAR":"0.00011132000000","ELEMENT_SET_NO":"999","TIME_SYSTEM":"UTC","NORAD_CAT_ID":"53502","MEAN_ANOMALY":"107.0967","LAUNCH_DATE":"2022-08-12","SEMIMAJOR_AXIS":"6941.148","PERIOD":"95.919","OBJECT_NAME":"STARLINK-4435","RCS_SIZE":"LARGE","SITE":"AFWTR","MEAN_ELEMENT_THEORY":"SGP4","MEAN_MOTION_DDOT":"0.0000000000000","MEAN_MOTION_DOT":"0.00001371","MEAN_MOTION":"15.01259617","CENTER_NAME":"EARTH","REF_FRAME":"TEME","INCLINATION":"97.6540","RA_OF_ASC_NODE":"215.0562","CLASSIFICATION_TYPE":"U","APOAPSIS":"565.985","EPOCH":"2023-04-02T21:44:11.869152","PERIAPSIS":"560.041","COUNTRY_CODE":"US","GP_ID":"229353327","FILE":"3878419","ARG_OF_PERICENTER":"252.9788"}];
